[{"OBJECT_NAME":"STARLINK-3761","OBJECT_ID":"2022-041B","EPOCH":"2026-03-09T09:08:14.342784","MEAN_MOTION":15.08842697,"ECCENTRICITY":0.00018896,"INCLINATION":53.2167,"RA_OF_ASC_NODE":110.4603,"ARG_OF_PERICENTER":91.5589,"MEAN_ANOMALY":268.562,"EPHEMERIS_TYPE":0,"CLASSIFICATION_TYPE":"U","NORAD_CAT_ID":52262,"ELEMENT_SET_NO":999,"REV_AT_EPOCH":21431,"BSTAR":1.038593e-6,"MEAN_MOTION_DOT":-2.72e-6,"MEAN_MOTION_DDOT":0},{"OBJECT_NAME":"STARLINK-5895","OBJECT_ID":"2023-037BC","EPOCH":"2026-03-09T22:23:45.381696","MEAN_MOTION":15.07243555,"ECCENTRICITY":0.00049855,"INCLINATION":69.9972,"RA_OF_ASC_NODE":260.028,"ARG_OF_PERICENTER":264.4993,"MEAN_ANOMALY":95.5602,"EPHEMERIS_TYPE":0,"CLASSIFICATION_TYPE":"U","NORAD_CAT_ID":55964,"ELEMENT_SET_NO":999,"REV_AT_EPOCH":16460,"BSTAR":0.00072849946,"MEAN_MOTION_DOT":0.00010921,"MEAN_MOTION_DDOT":0}]
